{"spkid": "20445830", "covariance": {"epoch": "2456764.5", "labels": ["e", "q", "tp", "node", "peri", "i"], "data": [["4.585947422885909E-16", "-7.795022694339286E-16", "-2.737570265936411E-14", "-1.270126065233425E-13", "9.77481159090644E-14", "-2.99166663095854E-14"], ["-7.795022694339286E-16", "1.336744626930604E-15", "4.110880330139048E-14", "2.430635390549751E-13", "-1.90779168892187E-13", "5.508952072124085E-14"], ["-2.737570265936411E-14", "4.110880330139048E-14", "1.056424942721296E-10", "1.061544240155136E-10", "-2.511802872791664E-11", "2.357501679539127E-11"], ["-1.270126065233425E-13", "2.430635390549751E-13", "1.061544240155136E-10", "5.721639116091787E-9", "-5.615608014010388E-9", "4.534819119124141E-10"], ["9.77481159090644E-14", "-1.90779168892187E-13", "-2.511802872791664E-11", "-5.615608014010388E-9", "5.580026589260284E-9", "-4.320436852396317E-10"], ["-2.99166663095854E-14", "5.508952072124085E-14", "2.357501679539127E-11", "4.534819119124141E-10", "-4.320436852396317E-10", "5.789043981465593E-11"]], "elements": [{"sigma": 2.14148252920399e-08, "name": "e", "units": null, "value": ".4412350639897445", "title": "eccentricity", "label": "e"}, {"label": "q", "name": "q", "sigma": 3.65615183892929e-08, "title": "perihelion distance", "value": ".872731837550325", "units": "au"}, {"title": "time of perihelion passage", "value": "2456627.444020190732", "units": "TDB", "sigma": 1.02782534640925e-05, "name": "tp", "label": "tp"}, {"value": "128.9401323787183", "title": "longitude of the ascending node", "units": "deg", "name": "om", "sigma": 7.56415171456244e-05, "label": "node"}, {"sigma": 7.46995755627854e-05, "name": "w", "title": "argument of perihelion", "value": "294.8814189134355", "units": "deg", "label": "peri"}, {"label": "i", "units": "deg", "title": "inclination", "value": "2.874290133224009", "sigma": 7.60857672726351e-06, "name": "i"}]}, "elements": [{"label": "e", "units": null, "title": "eccentricity", "value": ".4410466185409275", "name": "e", "sigma": "2.1402E-8"}, {"label": "a", "sigma": "8.8796E-9", "name": "a", "units": "au", "value": "1.561429133000157", "title": "semi-major axis"}, {"label": "q", "units": "au", "value": ".8727660937991455", "title": "perihelion distance", "name": "q", "sigma": "3.6444E-8"}, {"label": "i", "units": "deg", "value": "2.866441844935716", "title": "inclination; angle with respect to x-y ecliptic plane", "name": "i", "sigma": "7.6169E-6"}, {"units": "deg", "value": "128.5017436641829", "title": "longitude of the ascending node", "sigma": "7.698E-5", "name": "om", "label": "node"}, {"units": "deg", "value": "295.357901499438", "title": "argument of perihelion", "sigma": "7.5948E-5", "name": "w", "label": "peri"}, {"label": "M", "units": "deg", "title": "mean anomaly", "value": "149.3671213250975", "sigma": "1.938E-5", "name": "ma"}, {"label": "tp", "title": "time of perihelion passage", "value": "2460904.811554269381", "units": "TDB", "sigma": "3.5926E-5", "name": "tp"}, {"name": "per", "sigma": "6.0792E-6", "title": "sidereal orbital period", "value": "712.6591147950098", "units": "d", "label": "period"}, {"units": "deg/d", "value": ".5051503482187986", "title": "mean motion", "name": "n", "sigma": "4.3091E-9", "label": "n"}, {"label": "Q", "name": "ad", "sigma": "1.2796E-8", "title": "aphelion distance", "value": "2.250092172201168", "units": "au"}], "epoch": "2461200.5"}